[{"OBJECT_NAME":"GSAT-14","OBJECT_ID":"2014-001A","EPOCH":"2026-03-03T01:17:21.750144","MEAN_MOTION":1.00271419,"ECCENTRICITY":0.0004668,"INCLINATION":0.0447,"RA_OF_ASC_NODE":273.6463,"ARG_OF_PERICENTER":43.6262,"MEAN_ANOMALY":296.8451,"EPHEMERIS_TYPE":0,"CLASSIFICATION_TYPE":"U","NORAD_CAT_ID":39498,"ELEMENT_SET_NO":999,"REV_AT_EPOCH":4431,"BSTAR":0,"MEAN_MOTION_DOT":-9.2e-7,"MEAN_MOTION_DDOT":0},{"OBJECT_NAME":"THAICOM 6","OBJECT_ID":"2014-002A","EPOCH":"2026-03-03T04:10:46.879680","MEAN_MOTION":1.00270103,"ECCENTRICITY":0.0001891,"INCLINATION":0.0256,"RA_OF_ASC_NODE":147.0766,"ARG_OF_PERICENTER":260.5264,"MEAN_ANOMALY":254.5452,"EPHEMERIS_TYPE":0,"CLASSIFICATION_TYPE":"U","NORAD_CAT_ID":39500,"ELEMENT_SET_NO":999,"REV_AT_EPOCH":4439,"BSTAR":0,"MEAN_MOTION_DOT":-1.36e-6,"MEAN_MOTION_DDOT":0},{"OBJECT_NAME":"TDRS 12","OBJECT_ID":"2014-004A","EPOCH":"2026-03-03T04:20:33.380160","MEAN_MOTION":1.00270499,"ECCENTRICITY":0.0003976,"INCLINATION":3.8746,"RA_OF_ASC_NODE":17.218,"ARG_OF_PERICENTER":267.0874,"MEAN_ANOMALY":260.8909,"EPHEMERIS_TYPE":0,"CLASSIFICATION_TYPE":"U","NORAD_CAT_ID":39504,"ELEMENT_SET_NO":999,"REV_AT_EPOCH":4321,"BSTAR":0,"MEAN_MOTION_DOT":-2.83e-6,"MEAN_MOTION_DDOT":0},{"OBJECT_NAME":"ABS-2","OBJECT_ID":"2014-006A","EPOCH":"2026-03-03T02:27:04.318848","MEAN_MOTION":1.00271823,"ECCENTRICITY":0.0003062,"INCLINATION":0.0519,"RA_OF_ASC_NODE":274.6036,"ARG_OF_PERICENTER":59.7449,"MEAN_ANOMALY":298.1821,"EPHEMERIS_TYPE":0,"CLASSIFICATION_TYPE":"U","NORAD_CAT_ID":39508,"ELEMENT_SET_NO":999,"REV_AT_EPOCH":4421,"BSTAR":0,"MEAN_MOTION_DOT":-1.01e-6,"MEAN_MOTION_DDOT":0},{"OBJECT_NAME":"ATHENA-FIDUS","OBJECT_ID":"2014-006B","EPOCH":"2026-03-03T02:16:27.835104","MEAN_MOTION":1.0027102,"ECCENTRICITY":0.0001665,"INCLINATION":0.0281,"RA_OF_ASC_NODE":112.3623,"ARG_OF_PERICENTER":244.0309,"MEAN_ANOMALY":236.3641,"EPHEMERIS_TYPE":0,"CLASSIFICATION_TYPE":"U","NORAD_CAT_ID":39509,"ELEMENT_SET_NO":999,"REV_AT_EPOCH":4402,"BSTAR":0,"MEAN_MOTION_DOT":1.38e-6,"MEAN_MOTION_DDOT":0},{"OBJECT_NAME":"TURKSAT 4A","OBJECT_ID":"2014-007A","EPOCH":"2026-03-03T02:17:42.717120","MEAN_MOTION":1.00270369,"ECCENTRICITY":0.0004332,"INCLINATION":0.0717,"RA_OF_ASC_NODE":290.2991,"ARG_OF_PERICENTER":18.3094,"MEAN_ANOMALY":288.6548,"EPHEMERIS_TYPE":0,"CLASSIFICATION_TYPE":"U","NORAD_CAT_ID":39522,"ELEMENT_SET_NO":999,"REV_AT_EPOCH":4390,"BSTAR":0,"MEAN_MOTION_DOT":1.3e-6,"MEAN_MOTION_DDOT":0},{"OBJECT_NAME":"EXPRESS-AT1","OBJECT_ID":"2014-010A","EPOCH":"2026-03-03T04:10:26.535072","MEAN_MOTION":1.00286556,"ECCENTRICITY":4.63e-5,"INCLINATION":0.0182,"RA_OF_ASC_NODE":234.3603,"ARG_OF_PERICENTER":182.8711,"MEAN_ANOMALY":222.3054,"EPHEMERIS_TYPE":0,"CLASSIFICATION_TYPE":"U","NORAD_CAT_ID":39612,"ELEMENT_SET_NO":999,"REV_AT_EPOCH":4375,"BSTAR":0,"MEAN_MOTION_DOT":6.1e-7,"MEAN_MOTION_DDOT":0},{"OBJECT_NAME":"EXPRESS-AT2","OBJECT_ID":"2014-010B","EPOCH":"2026-03-03T06:10:57.860832","MEAN_MOTION":1.00270562,"ECCENTRICITY":0.0001294,"INCLINATION":0.0217,"RA_OF_ASC_NODE":160.8306,"ARG_OF_PERICENTER":106.862,"MEAN_ANOMALY":125.9346,"EPHEMERIS_TYPE":0,"CLASSIFICATION_TYPE":"U","NORAD_CAT_ID":39613,"ELEMENT_SET_NO":999,"REV_AT_EPOCH":4343,"BSTAR":0,"MEAN_MOTION_DOT":0,"MEAN_MOTION_DDOT":0},{"OBJECT_NAME":"AMAZONAS 4A","OBJECT_ID":"2014-011A","EPOCH":"2026-03-03T03:25:38.777088","MEAN_MOTION":1.00271481,"ECCENTRICITY":0.0002735,"INCLINATION":0.0582,"RA_OF_ASC_NODE":159.5958,"ARG_OF_PERICENTER":156.6517,"MEAN_ANOMALY":182.0698,"EPHEMERIS_TYPE":0,"CLASSIFICATION_TYPE":"U","NORAD_CAT_ID":39616,"ELEMENT_SET_NO":999,"REV_AT_EPOCH":4365,"BSTAR":0,"MEAN_MOTION_DOT":-2.68e-6,"MEAN_MOTION_DDOT":0},{"OBJECT_NAME":"ASTRA 5B","OBJECT_ID":"2014-011B","EPOCH":"2026-03-03T03:13:38.772192","MEAN_MOTION":1.00270217,"ECCENTRICITY":0.0004207,"INCLINATION":0.0936,"RA_OF_ASC_NODE":297.5206,"ARG_OF_PERICENTER":25.9413,"MEAN_ANOMALY":269.3272,"EPHEMERIS_TYPE":0,"CLASSIFICATION_TYPE":"U","NORAD_CAT_ID":39617,"ELEMENT_SET_NO":999,"REV_AT_EPOCH":4360,"BSTAR":0,"MEAN_MOTION_DOT":1.21e-6,"MEAN_MOTION_DDOT":0},{"OBJECT_NAME":"IRNSS-1B","OBJECT_ID":"2014-017A","EPOCH":"2026-02-28T02:02:21.717312","MEAN_MOTION":1.00269801,"ECCENTRICITY":0.00210828,"INCLINATION":29.1168,"RA_OF_ASC_NODE":242.264,"ARG_OF_PERICENTER":179.2495,"MEAN_ANOMALY":181.947,"EPHEMERIS_TYPE":0,"CLASSIFICATION_TYPE":"U","NORAD_CAT_ID":39635,"ELEMENT_SET_NO":999,"REV_AT_EPOCH":4370,"BSTAR":0,"MEAN_MOTION_DOT":1.17e-6,"MEAN_MOTION_DDOT":0},{"OBJECT_NAME":"LUCH-5V","OBJECT_ID":"2014-023A","EPOCH":"2026-03-03T02:32:41.282304","MEAN_MOTION":1.00272065,"ECCENTRICITY":0.0002951,"INCLINATION":4.8715,"RA_OF_ASC_NODE":70.7857,"ARG_OF_PERICENTER":275.9339,"MEAN_ANOMALY":307.0543,"EPHEMERIS_TYPE":0,"CLASSIFICATION_TYPE":"U","NORAD_CAT_ID":39727,"ELEMENT_SET_NO":999,"REV_AT_EPOCH":4329,"BSTAR":0,"MEAN_MOTION_DOT":-2.82e-6,"MEAN_MOTION_DDOT":0},{"OBJECT_NAME":"KAZSAT-3","OBJECT_ID":"2014-023B","EPOCH":"2026-03-03T04:05:09.917952","MEAN_MOTION":1.00271531,"ECCENTRICITY":3.42e-5,"INCLINATION":0.0291,"RA_OF_ASC_NODE":55.987,"ARG_OF_PERICENTER":355.1887,"MEAN_ANOMALY":229.5389,"EPHEMERIS_TYPE":0,"CLASSIFICATION_TYPE":"U","NORAD_CAT_ID":39728,"ELEMENT_SET_NO":999,"REV_AT_EPOCH":4139,"BSTAR":0,"MEAN_MOTION_DOT":4.5e-7,"MEAN_MOTION_DDOT":0},{"OBJECT_NAME":"EUTELSAT 3B","OBJECT_ID":"2014-030A","EPOCH":"2026-03-03T03:49:18.934752","MEAN_MOTION":1.00272193,"ECCENTRICITY":0.0001226,"INCLINATION":0.0664,"RA_OF_ASC_NODE":333.4558,"ARG_OF_PERICENTER":284.1848,"MEAN_ANOMALY":323.7014,"EPHEMERIS_TYPE":0,"CLASSIFICATION_TYPE":"U","NORAD_CAT_ID":39773,"ELEMENT_SET_NO":999,"REV_AT_EPOCH":4300,"BSTAR":0,"MEAN_MOTION_DOT":4.0e-8,"MEAN_MOTION_DDOT":0},{"OBJECT_NAME":"ASIASAT 8 (AMOS-7)","OBJECT_ID":"2014-046A","EPOCH":"2026-03-03T00:53:00.979296","MEAN_MOTION":1.00273684,"ECCENTRICITY":0.0001362,"INCLINATION":0.0504,"RA_OF_ASC_NODE":271.4621,"ARG_OF_PERICENTER":58.5723,"MEAN_ANOMALY":309.3142,"EPHEMERIS_TYPE":0,"CLASSIFICATION_TYPE":"U","NORAD_CAT_ID":40107,"ELEMENT_SET_NO":999,"REV_AT_EPOCH":10108,"BSTAR":0,"MEAN_MOTION_DOT":-3.49e-6,"MEAN_MOTION_DDOT":0},{"OBJECT_NAME":"ASIASAT 6","OBJECT_ID":"2014-052A","EPOCH":"2026-03-02T23:14:32.917920","MEAN_MOTION":1.00268334,"ECCENTRICITY":9.2e-5,"INCLINATION":0.0211,"RA_OF_ASC_NODE":159.3664,"ARG_OF_PERICENTER":190.7384,"MEAN_ANOMALY":279.2001,"EPHEMERIS_TYPE":0,"CLASSIFICATION_TYPE":"U","NORAD_CAT_ID":40141,"ELEMENT_SET_NO":999,"REV_AT_EPOCH":4201,"BSTAR":0,"MEAN_MOTION_DOT":0,"MEAN_MOTION_DDOT":0},{"OBJECT_NAME":"OPTUS 10","OBJECT_ID":"2014-054A","EPOCH":"2026-03-02T20:43:38.584128","MEAN_MOTION":1.00270864,"ECCENTRICITY":0.0002089,"INCLINATION":0.0297,"RA_OF_ASC_NODE":263.575,"ARG_OF_PERICENTER":81.1283,"MEAN_ANOMALY":282.8275,"EPHEMERIS_TYPE":0,"CLASSIFICATION_TYPE":"U","NORAD_CAT_ID":40146,"ELEMENT_SET_NO":999,"REV_AT_EPOCH":4196,"BSTAR":0,"MEAN_MOTION_DOT":-1.64e-6,"MEAN_MOTION_DDOT":0}]
