GSAT-14                 
1 39498U 14001A   26062.05372396 -.00000092  00000+0  00000+0 0  9990
2 39498   0.0447 273.6463 0004668  43.6262 296.8451  1.00271419 44310
THAICOM 6               
1 39500U 14002A   26062.17415370 -.00000136  00000+0  00000+0 0  9997
2 39500   0.0256 147.0766 0001891 260.5264 254.5452  1.00270103 44398
TDRS 12                 
1 39504U 14004A   26062.18094190 -.00000283  00000+0  00000+0 0  9990
2 39504   3.8746  17.2180 0003976 267.0874 260.8909  1.00270499 43215
ABS-2                   
1 39508U 14006A   26062.10213332 -.00000101  00000+0  00000+0 0  9998
2 39508   0.0519 274.6036 0003062  59.7449 298.1821  1.00271823 44215
ATHENA-FIDUS            
1 39509U 14006B   26062.09476661  .00000138  00000+0  00000+0 0  9992
2 39509   0.0281 112.3623 0001665 244.0309 236.3641  1.00271020 44025
TURKSAT 4A              
1 39522U 14007A   26062.09563330  .00000130  00000+0  00000+0 0  9990
2 39522   0.0717 290.2991 0004332  18.3094 288.6548  1.00270369 43902
EXPRESS-AT1             
1 39612U 14010A   26062.17391823  .00000061  00000+0  00000+0 0  9992
2 39612   0.0182 234.3603 0000463 182.8711 222.3054  1.00286556 43756
EXPRESS-AT2             
1 39613U 14010B   26062.25761413  .00000000  00000+0  00000+0 0  9991
2 39613   0.0217 160.8306 0001294 106.8620 125.9346  1.00270562 43434
AMAZONAS 4A             
1 39616U 14011A   26062.14280992 -.00000268  00000+0  00000+0 0  9998
2 39616   0.0582 159.5958 0002735 156.6517 182.0698  1.00271481 43658
ASTRA 5B                
1 39617U 14011B   26062.13447653  .00000121  00000+0  00000+0 0  9994
2 39617   0.0936 297.5206 0004207  25.9413 269.3272  1.00270217 43608
IRNSS-1B                
1 39635U 14017A   26059.08497358  .00000117  00000+0  00000+0 0  9992
2 39635  29.1168 242.2640 0021082 179.2495 181.9470  1.00269801 43706
LUCH-5V                 
1 39727U 14023A   26062.10603336 -.00000282  00000+0  00000+0 0  9997
2 39727   4.8715  70.7857 0002951 275.9339 307.0543  1.00272065 43297
KAZSAT-3                
1 39728U 14023B   26062.17025368  .00000045  00000+0  00000+0 0  9994
2 39728   0.0291  55.9870 0000342 355.1887 229.5389  1.00271531 41398
EUTELSAT 3B             
1 39773U 14030A   26062.15924693  .00000004  00000+0  00000+0 0  9994
2 39773   0.0664 333.4558 0001226 284.1848 323.7014  1.00272193 43006
ASIASAT 8 (AMOS-7)      
1 40107U 14046A   26062.03681689 -.00000349  00000+0  00000+0 0  9999
2 40107   0.0504 271.4621 0001362  58.5723 309.3142  1.00273684101081
ASIASAT 6               
1 40141U 14052A   26061.96843655  .00000000  00000+0  00000+0 0  9991
2 40141   0.0211 159.3664 0000920 190.7384 279.2001  1.00268334 42018
OPTUS 10                
1 40146U 14054A   26061.86364102 -.00000164  00000+0  00000+0 0  9994
2 40146   0.0297 263.5750 0002089  81.1283 282.8275  1.00270864 41967
